{
    "links": {
        "self": "http://www.neowsapp.com/rest/v1/neo/3619729?api_key=iIulBulltgU6a56xZRHN4H3l9WmuAYTsLGpBGhQ2"
    },
    "id": "3619729",
    "neo_reference_id": "3619729",
    "name": "(2012 XK55)",
    "designation": "2012 XK55",
    "nasa_jpl_url": "http://ssd.jpl.nasa.gov/sbdb.cgi?sstr=3619729",
    "absolute_magnitude_h": 23.9,
    "estimated_diameter": {
        "kilometers": {
            "estimated_diameter_min": 0.04411182,
            "estimated_diameter_max": 0.0986370281
        },
        "meters": {
            "estimated_diameter_min": 44.1118199997,
            "estimated_diameter_max": 98.6370281305
        },
        "miles": {
            "estimated_diameter_min": 0.0274098057,
            "estimated_diameter_max": 0.0612901888
        },
        "feet": {
            "estimated_diameter_min": 144.7238235278,
            "estimated_diameter_max": 323.6123073718
        }
    },
    "is_potentially_hazardous_asteroid": false,
    "close_approach_data": [
        {
            "close_approach_date": "2012-12-11",
            "close_approach_date_full": "2012-Dec-11 14:56",
            "epoch_date_close_approach": 1355237760000,
            "relative_velocity": {
                "kilometers_per_second": "5.6983706333",
                "kilometers_per_hour": "20514.1342798386",
                "miles_per_hour": "12746.685269603"
            },
            "miss_distance": {
                "astronomical": "0.1725065309",
                "lunar": "67.1050405201",
                "kilometers": "25806609.583729183",
                "miles": "16035483.6200734054"
            },
            "orbiting_body": "Earth"
        }
    ],
    "orbital_data": {
        "orbit_id": "6",
        "orbit_determination_date": "2017-04-06 08:47:44",
        "first_observation_date": "2012-12-08",
        "last_observation_date": "2013-01-03",
        "data_arc_in_days": 26,
        "observations_used": 28,
        "orbit_uncertainty": "7",
        "minimum_orbit_intersection": ".154077",
        "jupiter_tisserand_invariant": "3.158",
        "epoch_osculation": "2459000.5",
        "eccentricity": ".5638186123610814",
        "semi_major_axis": "2.60972085553141",
        "inclination": "5.56049864001852",
        "ascending_node_longitude": "255.2558486284641",
        "orbital_period": "1539.889335263924",
        "perihelion_distance": "1.138311664115916",
        "perihelion_argument": "184.2403858021428",
        "aphelion_distance": "4.081130046946903",
        "perihelion_time": "2459372.163699262626",
        "mean_anomaly": "273.1113329571742",
        "mean_motion": ".2337830334660374",
        "equinox": "J2000",
        "orbit_class": {
            "orbit_class_type": "AMO",
            "orbit_class_description": "Near-Earth asteroid orbits similar to that of 1221 Amor",
            "orbit_class_range": "1.017 AU < q (perihelion) < 1.3 AU"
        }
    },
    "is_sentry_object": false
}